{
  "type": "FeatureCollection",
  "features": [
    {
      "type": "Feature",
      "properties": {
        "norad_id": 34070,
        "name": "COSMOS 2251 DEB",
        "group": "cosmos-2251-debris",
        "lat": -73.3474416980363,
        "lon": -18.34916608139789,
        "alt_km": 637.9473751246951,
        "timestamp": "2025-12-27T02:10:16.582732+00:00",
        "meta_object_name": "COSMOS 2251 DEB",
        "meta_object_id": "1993-036KH",
        "meta_epoch": "2025-12-25T01:01:03.747072",
        "meta_mean_motion": 14.774265,
        "meta_eccentricity": 0.00178437,
        "meta_inclination": 74.0006,
        "meta_ra_of_asc_node": 92.0864,
        "meta_arg_of_pericenter": 209.6173,
        "meta_mean_anomaly": 326.6955,
        "meta_ephemeris_type": 0,
        "meta_classification_type": "U",
        "meta_norad_cat_id": 34070,
        "meta_element_set_no": 999,
        "meta_rev_at_epoch": 88792,
        "meta_bstar": 0.0025645795,
        "meta_mean_motion_dot": 0.00018324,
        "meta_mean_motion_ddot": 0,
        "tle_line1": "1 34070U 93036KH  25359.04240448  .00018324  00000+0  25646-2 0  9997",
        "tle_line2": "2 34070  74.0006  92.0864 0017843 209.6173 326.6955 14.77426500887929"
      },
      "geometry": {
        "type": "Point",
        "coordinates": [
          -18.34916608139789,
          -73.3474416980363
        ]
      }
    },
    {
      "type": "Feature",
      "properties": {
        "norad_id": 34114,
        "name": "COSMOS 2251 DEB",
        "group": "cosmos-2251-debris",
        "lat": 55.7070323439626,
        "lon": 171.85977205967666,
        "alt_km": 712.4591196256033,
        "timestamp": "2025-12-27T02:10:16.582742+00:00",
        "meta_object_name": "COSMOS 2251 DEB",
        "meta_object_id": "1993-036KK",
        "meta_epoch": "2025-12-26T11:22:16.181760",
        "meta_mean_motion": 14.56564007,
        "meta_eccentricity": 0.0048324,
        "meta_inclination": 74.0594,
        "meta_ra_of_asc_node": 17.8054,
        "meta_arg_of_pericenter": 7.8973,
        "meta_mean_anomaly": 120.0303,
        "meta_ephemeris_type": 0,
        "meta_classification_type": "U",
        "meta_norad_cat_id": 34114,
        "meta_element_set_no": 999,
        "meta_rev_at_epoch": 88001,
        "meta_bstar": 0.0017463,
        "meta_mean_motion_dot": 7.882e-05,
        "meta_mean_motion_ddot": 0,
        "tle_line1": "1 34114U 93036KK  25360.47379840  .00007882  00000+0  17463-2 0  9999",
        "tle_line2": "2 34114  74.0594  17.8054 0048324   7.8973 120.0303 14.56564007880018"
      },
      "geometry": {
        "type": "Point",
        "coordinates": [
          171.85977205967666,
          55.7070323439626
        ]
      }
    },
    {
      "type": "Feature",
      "properties": {
        "norad_id": 34115,
        "name": "COSMOS 2251 DEB",
        "group": "cosmos-2251-debris",
        "lat": -13.820049449106245,
        "lon": -150.40257079115617,
        "alt_km": 620.7199664168093,
        "timestamp": "2025-12-27T02:10:16.582752+00:00",
        "meta_object_name": "COSMOS 2251 DEB",
        "meta_object_id": "1993-036KL",
        "meta_epoch": "2025-12-26T06:45:50.181120",
        "meta_mean_motion": 14.79663462,
        "meta_eccentricity": 0.0029111,
        "meta_inclination": 74.0052,
        "meta_ra_of_asc_node": 215.2379,
        "meta_arg_of_pericenter": 34.6993,
        "meta_mean_anomaly": 325.6074,
        "meta_ephemeris_type": 0,
        "meta_classification_type": "U",
        "meta_norad_cat_id": 34115,
        "meta_element_set_no": 999,
        "meta_rev_at_epoch": 89612,
        "meta_bstar": 0.00088326,
        "meta_mean_motion_dot": 6.648e-05,
        "meta_mean_motion_ddot": 0,
        "tle_line1": "1 34115U 93036KL  25360.28183080  .00006648  00000+0  88326-3 0  9994",
        "tle_line2": "2 34115  74.0052 215.2379 0029111  34.6993 325.6074 14.79663462896122"
      },
      "geometry": {
        "type": "Point",
        "coordinates": [
          -150.40257079115617,
          -13.820049449106245
        ]
      }
    },
    {
      "type": "Feature",
      "properties": {
        "norad_id": 34116,
        "name": "COSMOS 2251 DEB",
        "group": "cosmos-2251-debris",
        "lat": 17.406357755730973,
        "lon": 160.85325618647778,
        "alt_km": 722.7155742830864,
        "timestamp": "2025-12-27T02:10:16.582762+00:00",
        "meta_object_name": "COSMOS 2251 DEB",
        "meta_object_id": "1993-036KM",
        "meta_epoch": "2025-12-26T11:30:12.794400",
        "meta_mean_motion": 14.53059291,
        "meta_eccentricity": 0.0011791,
        "meta_inclination": 74.0399,
        "meta_ra_of_asc_node": 156.8584,
        "meta_arg_of_pericenter": 233.4573,
        "meta_mean_anomaly": 189.0449,
        "meta_ephemeris_type": 0,
        "meta_classification_type": "U",
        "meta_norad_cat_id": 34116,
        "meta_element_set_no": 999,
        "meta_rev_at_epoch": 88686,
        "meta_bstar": 0.00086803,
        "meta_mean_motion_dot": 3.563e-05,
        "meta_mean_motion_ddot": 0,
        "tle_line1": "1 34116U 93036KM  25360.47931475  .00003563  00000+0  86803-3 0  9996",
        "tle_line2": "2 34116  74.0399 156.8584 0011791 233.4573 189.0449 14.53059291886862"
      },
      "geometry": {
        "type": "Point",
        "coordinates": [
          160.85325618647778,
          17.406357755730973
        ]
      }
    },
    {
      "type": "Feature",
      "properties": {
        "norad_id": 34117,
        "name": "COSMOS 2251 DEB",
        "group": "cosmos-2251-debris",
        "lat": -68.38806742225206,
        "lon": -176.4395132349521,
        "alt_km": 792.6716950944892,
        "timestamp": "2025-12-27T02:10:16.582772+00:00",
        "meta_object_name": "COSMOS 2251 DEB",
        "meta_object_id": "1993-036KN",
        "meta_epoch": "2025-12-26T14:59:08.515968",
        "meta_mean_motion": 14.40069653,
        "meta_eccentricity": 0.0055181,
        "meta_inclination": 74.0407,
        "meta_ra_of_asc_node": 318.1745,
        "meta_arg_of_pericenter": 30.6976,
        "meta_mean_anomaly": 329.7387,
        "meta_ephemeris_type": 0,
        "meta_classification_type": "U",
        "meta_norad_cat_id": 34117,
        "meta_element_set_no": 999,
        "meta_rev_at_epoch": 88323,
        "meta_bstar": 0.0008014,
        "meta_mean_motion_dot": 2.548e-05,
        "meta_mean_motion_ddot": 0,
        "tle_line1": "1 34117U 93036KN  25360.62440412  .00002548  00000+0  80140-3 0  9990",
        "tle_line2": "2 34117  74.0407 318.1745 0055181  30.6976 329.7387 14.40069653883231"
      },
      "geometry": {
        "type": "Point",
        "coordinates": [
          -176.4395132349521,
          -68.38806742225206
        ]
      }
    },
    {
      "type": "Feature",
      "properties": {
        "norad_id": 34118,
        "name": "COSMOS 2251 DEB",
        "group": "cosmos-2251-debris",
        "lat": -57.19156501631577,
        "lon": 66.77379709074391,
        "alt_km": 631.5739833646812,
        "timestamp": "2025-12-27T02:10:16.582782+00:00",
        "meta_object_name": "COSMOS 2251 DEB",
        "meta_object_id": "1993-036KP",
        "meta_epoch": "2025-12-26T15:43:15.199392",
        "meta_mean_motion": 14.94387982,
        "meta_eccentricity": 0.006018,
        "meta_inclination": 73.9514,
        "meta_ra_of_asc_node": 221.1342,
        "meta_arg_of_pericenter": 47.7401,
        "meta_mean_anomaly": 11.804,
        "meta_ephemeris_type": 0,
        "meta_classification_type": "U",
        "meta_norad_cat_id": 34118,
        "meta_element_set_no": 999,
        "meta_rev_at_epoch": 89384,
        "meta_bstar": 0.0014342,
        "meta_mean_motion_dot": 0.00016004,
        "meta_mean_motion_ddot": 0,
        "tle_line1": "1 34118U 93036KP  25360.65503703  .00016004  00000+0  14342-2 0  9999",
        "tle_line2": "2 34118  73.9514 221.1342 0060180  47.7401  11.8040 14.94387982893842"
      },
      "geometry": {
        "type": "Point",
        "coordinates": [
          66.77379709074391,
          -57.19156501631577
        ]
      }
    },
    {
      "type": "Feature",
      "properties": {
        "norad_id": 34120,
        "name": "COSMOS 2251 DEB",
        "group": "cosmos-2251-debris",
        "lat": 39.59339659746278,
        "lon": -154.90002125585448,
        "alt_km": 774.7360894243393,
        "timestamp": "2025-12-27T02:10:16.582796+00:00",
        "meta_object_name": "COSMOS 2251 DEB",
        "meta_object_id": "1993-036KR",
        "meta_epoch": "2025-12-26T14:13:31.266336",
        "meta_mean_motion": 13.98698575,
        "meta_eccentricity": 0.0182568,
        "meta_inclination": 73.99,
        "meta_ra_of_asc_node": 192.225,
        "meta_arg_of_pericenter": 16.8495,
        "meta_mean_anomaly": 38.527,
        "meta_ephemeris_type": 0,
        "meta_classification_type": "U",
        "meta_norad_cat_id": 34120,
        "meta_element_set_no": 999,
        "meta_rev_at_epoch": 86174,
        "meta_bstar": 0.00031006,
        "meta_mean_motion_dot": 4.9e-06,
        "meta_mean_motion_ddot": 0,
        "tle_line1": "1 34120U 93036KR  25360.59272299  .00000490  00000+0  31006-3 0  9997",
        "tle_line2": "2 34120  73.9900 192.2250 0182568  16.8495  38.5270 13.98698575861746"
      },
      "geometry": {
        "type": "Point",
        "coordinates": [
          -154.90002125585448,
          39.59339659746278
        ]
      }
    }
  ]
}